"zip","city","county","pop"
"11368","Corona","Queens","112088"
"11385","Ridgewood","Queens","107796"
"11211","Brooklyn","Kings","103123"
"11208","Brooklyn","Kings","101313"
"10467","Bronx","Bronx","101255"
"11236","Brooklyn","Kings","100844"
"11226","Brooklyn","Kings","99558"
"11373","Elmhurst","Queens","94437"
"11234","Brooklyn","Kings","93534"
"11220","Brooklyn","Kings","93170"
"10456","Bronx","Bronx","92717"
"11214","Brooklyn","Kings","92644"
"10025","New York City","New York","92251"
"11207","Brooklyn","Kings","91083"
"10314","Staten Island","Richmond","89792"
"11219","Brooklyn","Kings","89371"
"11206","Brooklyn","Kings","88422"
"11230","Brooklyn","Kings","86139"
"10458","Bronx","Bronx","85620"
"11377","Woodside","Queens","83825"
"11221","Brooklyn","Kings","83322"
"11229","Brooklyn","Kings","83119"
"10453","Bronx","Bronx","81716"
"11223","Brooklyn","Kings","81388"
"11355","Flushing","Queens","80987"
"11233","Brooklyn","Kings","79439"
"10468","Bronx","Bronx","78881"
"11235","Brooklyn","Kings","78775"
"10029","New York City","New York","76713"
"11204","Brooklyn","Kings","76395"
"11203","Brooklyn","Kings","76085"
"10462","Bronx","Bronx","75714"
"11212","Brooklyn","Kings","75605"
"10452","Bronx","Bronx","75452"
"10466","Bronx","Bronx","75039"
"10457","Bronx","Bronx","74822"
"10002","New York City","New York","74479"
"11375","Forest Hills","Queens","73034"
"11218","Brooklyn","Kings","72413"
"10469","Bronx","Bronx","72384"
"10463","Bronx","Bronx","71132"
"11215","Brooklyn","Kings","69873"
"11691","Far Rockaway","Queens","68543"
"11706","Bay Shore","Suffolk","68401"
"10472","Bronx","Bronx","67948"
"11746","Huntington Station","Suffolk","67863"
"11209","Brooklyn","Kings","67782"
"11213","Brooklyn","Kings","67056"
"10977","Spring Valley","Rockland","66138"
"10027","New York City","New York","64988"
"11210","Brooklyn","Kings","64665"
"11434","Jamaica","Queens","64304"
"11432","Jamaica","Queens","64299"
"14850","Ithaca","Tompkins","64221"
"11717","Brentwood","Suffolk","63492"
"11201","Brooklyn","Kings","63378"
"10032","New York City","New York","63214"
"11372","Jackson Heights","Queens","62854"
"10023","New York City","New York","62541"
"10701","Yonkers","Westchester","61604"
"10312","Staten Island","Richmond","61392"
"11435","Jamaica","Queens","59605"
"10031","New York City","New York","59586"
"10473","Bronx","Bronx","59579"
"10460","Bronx","Bronx","59432"
"10128","New York City","New York","58636"
"10033","New York City","New York","58349"
"10009","New York City","New York","58293"
"10024","New York City","New York","58102"
"11216","Brooklyn","Kings","57786"
"11550","Hempstead","Nassau","57639"
"11225","Brooklyn","Kings","56859"
"11238","Brooklyn","Kings","55210"
"12550","Newburgh","Orange","55149"
"10003","New York City","New York","53977"
"14221","Buffalo","Erie","53948"
"10306","Staten Island","Richmond","53877"
"11354","Flushing","Queens","53684"
"12180","Troy","Rensselaer","53464"
"10016","New York City","New York","52886"
"11758","Massapequa","Nassau","52783"
"14580","Webster","Monroe","52585"
"10950","Monroe","Orange","50979"
"10011","New York City","New York","49949"
"10461","Bronx","Bronx","49690"
"14094","Lockport","Niagara","49257"
"11237","Brooklyn","Kings","48876"
"10459","Bronx","Bronx","48780"
"11419","South Richmond Hill","Queens","48369"
"10451","Bronx","Bronx","48136"
"10940","Middletown","Orange","48021"
"11420","South Ozone Park","Queens","47470"
"11590","Westbury","Nassau","47245"
"11205","Brooklyn","Kings","46843"
"10028","New York City","New York","46768"
"11772","Patchogue","Suffolk","45991"
"11224","Brooklyn","Kings","45795"
"10019","New York City","New York","45498"
"10040","New York City","New York","44800"
"11365","Fresh Meadows","Queens","44738"
"11003","Elmont","Nassau","44572"
"11757","Lindenhurst","Suffolk","44368"
"11228","Brooklyn","Kings","44348"
"10021","New York City","New York","44280"
"14120","North Tonawanda","Niagara","44119"
"10465","Bronx","Bronx","43671"
"11374","Rego Park","Queens","43507"
"11756","Levittown","Nassau","43446"
"11520","Freeport","Nassau","43438"
"11580","Valley Stream","Nassau","42990"
"10475","Bronx","Bronx","42818"
"14075","Hamburg","Erie","42780"
"10305","Staten Island","Richmond","42726"
"12065","Clifton Park","Saratoga","42701"
"12603","Poughkeepsie","Dutchess","42540"
"10034","New York City","New York","42399"
"13760","Endicott","Broome","42372"
"10952","Monsey","Rockland","42063"
"10455","Bronx","Bronx","41951"
"11743","Huntington","Suffolk","41878"
"11217","Brooklyn","Kings","41813"
"11413","Springfield Gardens","Queens","41650"
"11040","New Hyde Park","Nassau","41592"
"14450","Fairport","Monroe","41546"
"14215","Buffalo","Erie","41435"
"12601","Poughkeepsie","Dutchess","41392"
"10801","New Rochelle","Westchester","41370"
"11421","Woodhaven","Queens","41251"
"11367","Flushing","Queens","41207"
"14609","Rochester","Monroe","41168"
"10304","Staten Island","Richmond","41112"
"13440","Rome","Oneida","41014"
"10583","Scarsdale","Westchester","40851"
"14150","Tonawanda","Erie","40850"
"14224","Buffalo","Erie","40815"
"11801","Hicksville","Nassau","40288"
"11704","West Babylon","Suffolk","39981"
"10705","Yonkers","Westchester","39944"
"12866","Saratoga Springs","Saratoga","39689"
"11357","Whitestone","Queens","39407"
"14701","Jamestown","Chautauqua","39214"
"10573","Port Chester","Westchester","38816"
"10026","New York City","New York","38585"
"11378","Maspeth","Queens","38524"
"11418","Richmond Hill","Queens","38405"
"10301","Staten Island","Richmond","38280"
"11554","East Meadow","Nassau","38029"
"11379","Middle Village","Queens","37991"
"11231","Brooklyn","Kings","37874"
"11412","Saint Albans","Queens","37857"
"13021","Auburn","Cayuga","37841"
"11779","Ronkonkoma","Suffolk","37837"
"11561","Long Beach","Nassau","37726"
"11106","Astoria","Queens","37690"
"13601","Watertown","Jefferson","37548"
"10550","Mount Vernon","Westchester","37429"
"10454","Bronx","Bronx","37212"
"11433","Jamaica","Queens","37021"
"11105","Astoria","Queens","36983"
"13501","Utica","Oneida","36920"
"11222","Brooklyn","Kings","36872"
"14624","Rochester","Monroe","36570"
"11358","Flushing","Queens","36515"
"11364","Oakland Gardens","Queens","36215"
"10035","New York City","New York","36048"
"11103","Astoria","Queens","35995"
"10010","New York City","New York","35906"
"13126","Oswego","Oswego","35833"
"12401","Kingston","Ulster","35192"
"12590","Wappingers Falls","Dutchess","34910"
"11710","Bellmore","Nassau","34634"
"11787","Smithtown","Suffolk","34376"
"14612","Rochester","Monroe","34116"
"10309","Staten Island","Richmond","34058"
"11735","Farmingdale","Nassau","33893"
"12020","Ballston Spa","Saratoga","33563"
"11566","Merrick","Nassau","33331"
"13502","Utica","Oneida","33314"
"12901","Plattsburgh","Clinton","33312"
"11510","Baldwin","Nassau","33299"
"14225","Buffalo","Erie","33091"
"14621","Rochester","Monroe","33066"
"13027","Baldwinsville","Onondaga","33049"
"11422","Rosedale","Queens","32761"
"14086","Lancaster","Erie","32585"
"10956","New City","Rockland","32289"
"11722","Central Islip","Suffolk","31878"
"10704","Yonkers","Westchester","31683"
"10562","Ossining","Westchester","31636"
"14534","Pittsford","Monroe","31615"
"11370","East Elmhurst","Queens","31580"
"11369","East Elmhurst","Queens","31481"
"11101","Long Island City","Queens","31366"
"11417","Ozone Park","Queens","31321"
"10022","New York City","New York","31130"
"10030","New York City","New York","31060"
"14226","Buffalo","Erie","30644"
"11793","Wantagh","Nassau","30643"
"11731","East Northport","Suffolk","30436"
"11050","Port Washington","Nassau","30357"
"10014","New York City","New York","30344"
"14626","Rochester","Monroe","30292"
"14127","Orchard Park","Erie","30191"
"11423","Hollis","Queens","30104"
"12203","Albany","Albany","30010"
"12309","Schenectady","Schenectady","30007"
"13090","Liverpool","Onondaga","29869"
"11102","Astoria","Queens","29747"
"11727","Coram","Suffolk","29736"
"10308","Staten Island","Richmond","29512"
"11725","Commack","Suffolk","29396"
"10598","Yorktown Heights","Westchester","29320"
"14304","Niagara Falls","Niagara","29262"
"11572","Oceanside","Nassau","29243"
"13045","Cortland","Cortland","28916"
"10013","New York City","New York","28799"
"11763","Medford","Suffolk","28579"
"11803","Plainview","Nassau","28520"
"12303","Schenectady","Schenectady","28488"
"10036","New York City","New York","28487"
"11530","Garden City","Nassau","28460"
"11720","Centereach","Suffolk","28454"
"11901","Riverhead","Suffolk","28387"
"11701","Amityville","Suffolk","28363"
"11414","Howard Beach","Queens","28313"
"14606","Rochester","Monroe","28296"
"12010","Amsterdam","Montgomery","28152"
"11001","Floral Park","Nassau","28021"
"13210","Syracuse","Onondaga","27916"
"11542","Glen Cove","Nassau","27893"
"14424","Canandaigua","Ontario","27880"
"11967","Shirley","Suffolk","27854"
"10039","New York City","New York","27854"
"11429","Queens Village","Queens","27454"
"10303","Staten Island","Richmond","27401"
"12302","Schenectady","Schenectady","27377"
"11729","Deer Park","Suffolk","27252"
"11570","Rockville Centre","Nassau","27234"
"11361","Bayside","Queens","27201"
"14616","Rochester","Monroe","26948"
"12205","Albany","Albany","26941"
"12306","Schenectady","Schenectady","26799"
"11416","Ozone Park","Queens","26744"
"12553","New Windsor","Orange","26674"
"11741","Holbrook","Suffolk","26651"
"11232","Brooklyn","Kings","26430"
"10541","Mahopac","Putnam","26321"
"12804","Queensbury","Warren","26187"
"11791","Syosset","Nassau","26135"
"11553","Uniondale","Nassau","26054"
"14623","Rochester","Monroe","25893"
"13905","Binghamton","Broome","25890"
"12533","Hopewell Junction","Dutchess","25426"
"11784","Selden","Suffolk","25337"
"10710","Yonkers","Westchester","25262"
"11104","Sunnyside","Queens","25114"
"11776","Port Jefferson Station","Suffolk","24950"
"11552","West Hempstead","Nassau","24908"
"11795","West Islip","Suffolk","24775"
"11010","Franklin Square","Nassau","24752"
"10512","Carmel","Putnam","24672"
"11427","Queens Village","Queens","24560"
"14043","Depew","Erie","24538"
"13069","Fulton","Oswego","24166"
"10001","New York City","New York","24117"
"10566","Peekskill","Westchester","24010"
"14620","Rochester","Monroe","23835"
"10310","Staten Island","Richmond","23800"
"11356","College Point","Queens","23494"
"12078","Gloversville","Fulton","23419"
"10012","New York City","New York","23318"
"10038","New York City","New York","23311"
"14207","Buffalo","Erie","23275"
"14213","Buffalo","Erie","23113"
"10591","Tarrytown","Westchester","23044"
"10901","Suffern","Rockland","23039"
"14217","Buffalo","Erie","22975"
"10954","Nanuet","Rockland","22931"
"13208","Syracuse","Onondaga","22833"
"14617","Rochester","Monroe","22774"
"11714","Bethpage","Nassau","22741"
"14020","Batavia","Genesee","22707"
"14220","Buffalo","Erie","22623"
"14618","Rochester","Monroe","22597"
"14211","Buffalo","Erie","22495"
"10471","Bronx","Bronx","22422"
"11762","Massapequa Park","Nassau","22358"
"13850","Vestal","Broome","22351"
"14216","Buffalo","Erie","22289"
"12304","Schenectady","Schenectady","22230"
"14223","Buffalo","Erie","22225"
"10703","Yonkers","Westchester","22148"
"11692","Arverne","Queens","22074"
"13820","Oneonta","Otsego","22070"
"11563","Lynbrook","Nassau","21919"
"13088","Liverpool","Onondaga","21917"
"14228","Buffalo","Erie","21839"
"11581","Valley Stream","Nassau","21794"
"10708","Bronxville","Westchester","21769"
"12208","Albany","Albany","21666"
"12110","Latham","Albany","21665"
"14227","Buffalo","Erie","21497"
"12047","Cohoes","Albany","21355"
"11783","Seaford","Nassau","21280"
"13212","Syracuse","Onondaga","21269"
"11694","Rockaway Park","Queens","21202"
"11768","Northport","Suffolk","21113"
"14072","Grand Island","Erie","21047"
"14420","Brockport","Monroe","21006"
"10543","Mamaroneck","Westchester","20951"
"11411","Cambria Heights","Queens","20719"
"11426","Bellerose","Queens","20524"
"10567","Cortlandt Manor","Westchester","20518"
"10037","New York City","New York","20462"
"14206","Buffalo","Erie","20310"
"10990","Warwick","Orange","20307"
"14051","East Amherst","Erie","20219"
"12144","Rensselaer","Rensselaer","20205"
"10552","Mount Vernon","Westchester","20202"
"14845","Horseheads","Chemung","20011"
"14526","Penfield","Monroe","19973"
"12508","Beacon","Dutchess","19825"
"11501","Mineola","Nassau","19621"
"10509","Brewster","Putnam","19582"
"14830","Corning","Steuben","19521"
"14214","Buffalo","Erie","19492"
"11726","Copiague","Suffolk","19481"
"14456","Geneva","Ontario","19473"
"13901","Binghamton","Broome","19230"
"10605","White Plains","Westchester","19195"
"11436","Jamaica","Queens","19167"
"10805","New Rochelle","Westchester","19096"
"11360","Bayside","Queens","18954"
"14218","Buffalo","Erie","18952"
"14559","Spencerport","Monroe","18930"
"11415","Kew Gardens","Queens","18891"
"11428","Queens Village","Queens","18836"
"13204","Syracuse","Onondaga","18741"
"12561","New Paltz","Ulster","18713"
"11030","Manhasset","Nassau","18578"
"11362","Little Neck","Queens","18343"
"11747","Melville","Suffolk","18288"
"13903","Binghamton","Broome","18258"
"11021","Great Neck","Nassau","18245"
"12477","Saugerties","Ulster","18060"
"10302","Staten Island","Richmond","18037"
"12534","Hudson","Columbia","18007"
"11738","Farmingville","Suffolk","17972"
"13790","Johnson City","Broome","17964"
"11754","Kings Park","Suffolk","17946"
"14468","Hilton","Monroe","17913"
"10603","White Plains","Westchester","17866"
"14760","Olean","Cattaraugus","17640"
"10580","Rye","Westchester","17334"
"11790","Stony Brook","Suffolk","17304"
"12189","Watervliet","Albany","17290"
"13205","Syracuse","Onondaga","17212"
"11575","Roosevelt","Nassau","17180"
"13039","Cicero","Onondaga","17028"
"14615","Rochester","Monroe","16963"
"14611","Rochester","Monroe","16962"
"12054","Delmar","Albany","16940"
"12589","Wallkill","Ulster","16882"
"10606","White Plains","Westchester","16841"
"14305","Niagara Falls","Niagara","16767"
"13206","Syracuse","Onondaga","16723"
"14052","East Aurora","Erie","16672"
"13676","Potsdam","St. Lawrence","16637"
"11788","Hauppauge","Suffolk","16583"
"14607","Rochester","Monroe","16521"
"12831","Gansevoort","Saratoga","16517"
"13203","Syracuse","Onondaga","16513"
"10549","Mount Kisco","Westchester","16498"
"12206","Albany","Albany","16480"
"11950","Mastic","Suffolk","16444"
"11733","East Setauket","Suffolk","16363"
"10538","Larchmont","Westchester","16302"
"13662","Massena","St. Lawrence","16267"
"11937","East Hampton","Suffolk","16137"
"11703","North Babylon","Suffolk","16119"
"11780","Saint James","Suffolk","16099"
"13104","Manlius","Onondaga","16052"
"12524","Fishkill","Dutchess","15934"
"13669","Ogdensburg","St. Lawrence","15908"
"10960","Nyack","Rockland","15857"
"14901","Elmira","Chemung","15855"
"10017","New York City","New York","15846"
"13413","New Hartford","Oneida","15777"
"10470","Bronx","Bronx","15716"
"10965","Pearl River","Rockland","15534"
"12118","Mechanicville","Saratoga","15508"
"11946","Hampton Bays","Suffolk","15453"
"14613","Rochester","Monroe","15381"
"12953","Malone","Franklin","15374"
"10804","New Rochelle","Westchester","15229"
"14904","Elmira","Chemung","15176"
"13219","Syracuse","Onondaga","15107"
"11004","Glen Oaks","Queens","15098"
"14564","Victor","Ontario","15082"
"13031","Camillus","Onondaga","15080"
"11782","Sayville","Suffolk","14965"
"13215","Syracuse","Onondaga","14952"
"11767","Nesconset","Suffolk","14952"
"10307","Staten Island","Richmond","14906"
"11798","Wyandanch","Suffolk","14864"
"12771","Port Jervis","Orange","14788"
"12308","Schenectady","Schenectady","14699"
"12019","Ballston Lake","Saratoga","14456"
"12182","Troy","Rensselaer","14432"
"11366","Fresh Meadows","Queens","14360"
"12801","Glens Falls","Warren","14358"
"11751","Islip","Suffolk","14314"
"14063","Fredonia","Chautauqua","14302"
"14048","Dunkirk","Chautauqua","14283"
"14210","Buffalo","Erie","14249"
"11702","Babylon","Suffolk","14127"
"14222","Buffalo","Erie","14114"
"12538","Hyde Park","Dutchess","14081"
"11598","Woodmere","Nassau","14066"
"10980","Stony Point","Rockland","13942"
"14513","Newark","Wayne","13938"
"10941","Middletown","Orange","13786"
"14411","Albion","Orleans","13776"
"14610","Rochester","Monroe","13760"
"11949","Manorville","Suffolk","13760"
"11730","East Islip","Suffolk","13663"
"11953","Middle Island","Suffolk","13645"
"13057","East Syracuse","Onondaga","13643"
"14619","Rochester","Monroe","13642"
"10924","Goshen","Orange","13508"
"10528","Harrison","Westchester","13182"
"13421","Oneida","Madison","13149"
"10520","Croton On Hudson","Westchester","13117"
"11951","Mastic Beach","Suffolk","13015"
"11764","Miller Place","Suffolk","12981"
"11693","Far Rockaway","Queens","12944"
"13815","Norwich","Chenango","12930"
"11961","Ridge","Suffolk","12902"
"10570","Pleasantville","Westchester","12900"
"11753","Jericho","Nassau","12857"
"12839","Hudson Falls","Washington","12838"
"14843","Hornell","Steuben","12814"
"12528","Highland","Ulster","12797"
"11239","Brooklyn","Kings","12772"
"14527","Penn Yan","Yates","12745"
"13209","Syracuse","Onondaga","12713"
"14301","Niagara Falls","Niagara","12704"
"10514","Chappaqua","Westchester","12667"
"10918","Chester","Orange","12653"
"11545","Glen Head","Nassau","12604"
"11755","Lake Grove","Suffolk","12598"
"13207","Syracuse","Onondaga","12597"
"13066","Fayetteville","Onondaga","12525"
"11577","Roslyn Heights","Nassau","12513"
"10803","Pelham","Westchester","12510"
"10044","New York City","New York","12440"
"11742","Holtsville","Suffolk","12438"
"11576","Roslyn","Nassau","12374"
"14004","Alden","Erie","12332"
"10530","Hartsdale","Westchester","12268"
"12586","Walden","Orange","12246"
"13032","Canastota","Madison","12208"
"10474","Bronx","Bronx","12179"
"11778","Rocky Point","Suffolk","12081"
"14810","Bath","Steuben","12067"
"10927","Haverstraw","Rockland","12065"
"14425","Farmington","Ontario","12049"
"12095","Johnstown","Fulton","12046"
"14219","Buffalo","Erie","12000"
"14622","Rochester","Monroe","11939"
"14201","Buffalo","Erie","11935"
"14605","Rochester","Monroe","11932"
"14586","West Henrietta","Monroe","11875"
"14519","Ontario","Wayne","11723"
"11766","Mount Sinai","Suffolk","11720"
"12566","Pine Bush","Orange","11571"
"14608","Rochester","Monroe","11542"
"12701","Monticello","Sullivan","11526"
"13827","Owego","Tioga","11452"
"12188","Waterford","Saratoga","11415"
"13041","Clay","Onondaga","11409"
"10604","West Harrison","Westchester","11290"
"13323","Clinton","Oneida","11282"
"14437","Dansville","Livingston","11220"
"14454","Geneseo","Livingston","11206"
"13492","Whitesboro","Oneida","11154"
"13617","Canton","St. Lawrence","11137"
"10522","Dobbs Ferry","Westchester","11070"
"12211","Albany","Albany","10990"
"14092","Lewiston","Niagara","10922"
"12549","Montgomery","Orange","10915"
"13078","Jamesville","Onondaga","10889"
"13357","Ilion","Herkimer","10786"
"14502","Macedon","Wayne","10733"
"14212","Buffalo","Erie","10715"
"10536","Katonah","Westchester","10627"
"10601","White Plains","Westchester","10614"
"14208","Buffalo","Erie","10574"
"13148","Seneca Falls","Seneca","10535"
"14103","Medina","Orleans","10519"
"11968","Southampton","Suffolk","10517"
"14031","Clarence","Erie","10468"
"10510","Briarcliff Manor","Westchester","10438"
"13619","Carthage","Jefferson","10400"
"13165","Waterloo","Seneca","10376"
"13904","Binghamton","Broome","10347"
"11596","Williston Park","Nassau","10347"
"14625","Rochester","Monroe","10262"
"10707","Tuckahoe","Westchester","10260"
"14467","Henrietta","Monroe","10098"
"10970","Pomona","Rockland","10082"
"10553","Mount Vernon","Westchester","10075"
"12569","Pleasant Valley","Dutchess","10047"
"12571","Red Hook","Dutchess","9984"
"12414","Catskill","Greene","9979"
"12209","Albany","Albany","9978"
"11518","East Rockaway","Nassau","9969"
"13642","Gouverneur","St. Lawrence","9909"
"14059","Elma","Erie","9860"
"13037","Chittenango","Madison","9787"
"13350","Herkimer","Herkimer","9786"
"11716","Bohemia","Suffolk","9781"
"11740","Greenlawn","Suffolk","9693"
"12061","East Greenbush","Rensselaer","9656"
"11752","Islip Terrace","Suffolk","9656"
"14006","Angola","Erie","9605"
"10709","Eastchester","Westchester","9603"
"12210","Albany","Albany","9583"
"14001","Akron","Erie","9522"
"13603","Watertown","Jefferson","9501"
"10280","New York City","New York","9496"
"12828","Fort Edward","Washington","9481"
"14870","Painted Post","Steuben","9468"
"10930","Highland Mills","Orange","9425"
"10992","Washingtonville","Orange","9360"
"11023","Great Neck","Nassau","9301"
"11713","Bellport","Suffolk","9295"
"14011","Attica","Wyoming","9198"
"11771","Oyster Bay","Nassau","9150"
"14895","Wellsville","Allegany","9144"
"10523","Elmsford","Westchester","9133"
"14032","Clarence Center","Erie","9083"
"10920","Congers","Rockland","9075"
"13036","Central Square","Oswego","9064"
"11777","Port Jefferson","Suffolk","9007"
"14522","Palmyra","Wayne","9005"
"11797","Woodbury","Nassau","8962"
"12572","Rhinebeck","Dutchess","8892"
"10018","New York City","New York","8806"
"10589","Somers","Westchester","8793"
"13367","Lowville","Lewis","8767"
"14472","Honeoye Falls","Monroe","8713"
"10005","New York City","New York","8701"
"10989","Valley Cottage","Rockland","8689"
"14204","Buffalo","Erie","8643"
"10923","Garnerville","Rockland","8627"
"11565","Malverne","Nassau","8560"
"10706","Hastings On Hudson","Westchester","8493"
"10595","Valhalla","Westchester","8473"
"11558","Island Park","Nassau","8465"
"13214","Syracuse","Onondaga","8439"
"12563","Patterson","Putnam","8431"
"13035","Cazenovia","Madison","8422"
"14905","Elmira","Chemung","8407"
"13224","Syracuse","Onondaga","8369"
"11096","Inwood","Nassau","8362"
"12803","South Glens Falls","Saratoga","8357"
"12202","Albany","Albany","8342"
"11769","Oakdale","Suffolk","8340"
"13365","Little Falls","Herkimer","8339"
"12204","Albany","Albany","8318"
"14482","Le Roy","Genesee","8303"
"11789","Sound Beach","Suffolk","8301"
"12540","Lagrangeville","Dutchess","8248"
"10579","Putnam Valley","Putnam","8208"
"10504","Armonk","Westchester","8196"
"11559","Lawrence","Nassau","8192"
"12043","Cobleskill","Schoharie","8129"
"13340","Frankfort","Herkimer","8097"
"13152","Skaneateles","Onondaga","8025"
"14892","Waverly","Tioga","8022"
"14057","Eden","Erie","8022"
"12033","Castleton On Hudson","Rensselaer","7906"
"12009","Altamont","Albany","7900"
"11557","Hewlett","Nassau","7878"
"12198","Wynantskill","Rensselaer","7871"
"12159","Slingerlands","Albany","7870"
"11792","Wading River","Suffolk","7853"
"13732","Apalachin","Tioga","7799"
"11024","Great Neck","Nassau","7786"
"14209","Buffalo","Erie","7736"
"11705","Bayport","Suffolk","7721"
"14445","East Rochester","Monroe","7716"
"10547","Mohegan Lake","Westchester","7690"
"10533","Irvington","Westchester","7662"
"14589","Williamson","Wayne","7605"
"14903","Elmira","Chemung","7600"
"11934","Center Moriches","Suffolk","7584"
"10607","White Plains","Westchester","7578"
"12564","Pawling","Dutchess","7549"
"14141","Springville","Erie","7480"
"12983","Saranac Lake","Franklin","7463"
"14464","Hamlin","Monroe","7462"
"10007","New York City","New York","7408"
"14470","Holley","Orleans","7406"
"10994","West Nyack","Rockland","7396"
"11516","Cedarhurst","Nassau","7372"
"11933","Calverton","Suffolk","7342"
"13403","Marcy","Oneida","7302"
"12018","Averill Park","Rensselaer","7226"
"11507","Albertson","Nassau","7225"
"14428","Churchville","Monroe","7208"
"14085","Lake View","Erie","7178"
"13029","Brewerton","Onondaga","7168"
"11963","Sag Harbor","Suffolk","7161"
"10507","Bedford Hills","Westchester","7134"
"14489","Lyons","Wayne","7113"
"11363","Little Neck","Queens","7096"
"10590","South Salem","Westchester","7078"
"12307","Schenectady","Schenectady","7031"
"14414","Avon","Livingston","7017"
"13077","Homer","Cortland","7015"
"12158","Selkirk","Albany","6945"
"14070","Gowanda","Cattaraugus","6894"
"12428","Ellenville","Ulster","6885"
"12184","Valatie","Columbia","6840"
"12570","Poughquag","Dutchess","6827"
"13202","Syracuse","Onondaga","6787"
"12077","Glenmont","Albany","6745"
"11709","Bayville","Nassau","6735"
"14068","Getzville","Erie","6731"
"14514","North Chili","Monroe","6724"
"14886","Trumansburg","Tompkins","6713"
"11560","Locust Valley","Nassau","6669"
"12834","Greenwich","Washington","6665"
"14779","Salamanca","Cattaraugus","6606"
"12754","Liberty","Sullivan","6602"
"14047","Derby","Erie","6549"
"13073","Groton","Tompkins","6534"
"13339","Fort Plain","Montgomery","6528"
"13142","Pulaski","Oswego","6522"
"12832","Granville","Washington","6502"
"12582","Stormville","Dutchess","6423"
"13135","Phoenix","Oswego","6392"
"12721","Bloomingburg","Sullivan","6387"
"12051","Coxsackie","Greene","6383"
"10996","West Point","Orange","6383"
"11786","Shoreham","Suffolk","6359"
"10577","Purchase","Westchester","6356"
"13114","Mexico","Oswego","6350"
"12090","Hoosick Falls","Rensselaer","6350"
"13865","Windsor","Broome","6297"
"11721","Centerport","Suffolk","6288"
"13346","Hamilton","Madison","6241"
"14568","Walworth","Wayne","6232"
"12222","Albany","Albany","6198"
"12186","Voorheesville","Albany","6193"
"14706","Allegany","Cattaraugus","6163"
"14487","Livonia","Livingston","6159"
"13118","Moravia","Cayuga","6159"
"13902","Binghamton","Broome","6130"
"13108","Marcellus","Onondaga","6095"
"13856","Walton","Delaware","6089"
"12822","Corinth","Saratoga","6060"
"10069","New York City","New York","6051"
"10962","Orangeburg","Rockland","6034"
"11971","Southold","Suffolk","6026"
"13316","Camden","Oneida","6000"
"10983","Tappan","Rockland","5999"
"14469","Bloomfield","Ontario","5983"
"12972","Peru","Clinton","5983"
"11109","Long Island City","Queens","5980"
"12986","Tupper Lake","Franklin","5941"
"14569","Warsaw","Wyoming","5896"
"14432","Clifton Springs","Ontario","5875"
"11980","Yaphank","Suffolk","5865"
"13211","Syracuse","Onondaga","5861"
"14837","Dundee","Yates","5786"
"10282","New York City","New York","5783"
"11020","Great Neck","Nassau","5774"
"13309","Boonville","Oneida","5748"
"12518","Cornwall","Orange","5732"
"14261","Buffalo","Erie","5702"
"10506","Bedford","Westchester","5699"
"14108","Newfane","Niagara","5689"
"14867","Newfield","Tompkins","5676"
"13753","Delhi","Delaware","5651"
"14132","Sanborn","Niagara","5632"
"12542","Marlboro","Ulster","5622"
"13166","Weedsport","Cayuga","5616"
"14174","Youngstown","Niagara","5597"
"14303","Niagara Falls","Niagara","5582"
"11940","East Moriches","Suffolk","5532"
"12305","Schenectady","Schenectady","5519"
"10502","Ardsley","Westchester","5514"
"14009","Arcade","Wyoming","5491"
"13778","Greene","Chenango","5486"
"13326","Cooperstown","Otsego","5419"
"12123","Nassau","Rensselaer","5398"
"12025","Broadalbin","Fulton","5388"
"14727","Cuba","Allegany","5386"
"10516","Cold Spring","Putnam","5375"
"14801","Addison","Steuben","5328"
"14590","Wolcott","Wayne","5316"
"14530","Perry","Wyoming","5306"
"13624","Clayton","Jefferson","5305"
"13159","Tully","Onondaga","5290"
"12962","Morrisonville","Clinton","5256"
"13068","Freeville","Tompkins","5231"
"11579","Sea Cliff","Nassau","5214"
"11942","East Quogue","Suffolk","5174"
"14551","Sodus","Wayne","5152"
"10594","Thornwood","Westchester","5090"
"13830","Oxford","Chenango","5077"
"14067","Gasport","Niagara","5076"
"10913","Blauvelt","Rockland","5075"
"12446","Kerhonkson","Ulster","5063"
"12498","Woodstock","Ulster","5045"
"13407","Mohawk","Herkimer","5023"
"13605","Adams","Jefferson","5014"
"11952","Mattituck","Suffolk","5010"
"13053","Dryden","Tompkins","5006"
"12084","Guilderland","Albany","5005"
"14505","Marion","Wayne","5002"
"14871","Pine City","Chemung","4980"
"14131","Ransomville","Niagara","4969"
"12170","Stillwater","Saratoga","4958"
"10532","Hawthorne","Westchester","4952"
"14510","Mount Morris","Livingston","4929"
"10576","Pound Ridge","Westchester","4907"
"12883","Ticonderoga","Essex","4845"
"14036","Corfu","Genesee","4836"
"13733","Bainbridge","Chenango","4811"
"10993","West Haverstraw","Rockland","4803"
"10560","North Salem","Westchester","4792"
"12946","Lake Placid","Essex","4746"
"12887","Whitehall","Washington","4745"
"12143","Ravena","Albany","4728"
"14883","Spencer","Tioga","4726"
"14787","Westfield","Chautauqua","4704"
"14546","Scottsville","Monroe","4702"
"11514","Carle Place","Nassau","4694"
"12545","Millbrook","Dutchess","4674"
"11804","Old Bethpage","Nassau","4671"
"14136","Silver Creek","Chautauqua","4667"
"12522","Dover Plains","Dutchess","4659"
"14572","Wayland","Steuben","4640"
"13452","Saint Johnsville","Montgomery","4618"
"14105","Middleport","Niagara","4591"
"11715","Blue Point","Suffolk","4583"
"13140","Port Byron","Cayuga","4571"
"12845","Lake George","Warren","4570"
"14423","Caledonia","Livingston","4559"
"11568","Old Westbury","Nassau","4548"
"10464","Bronx","Bronx","4531"
"12053","Delanson","Schenectady","4527"
"13849","Unadilla","Otsego","4502"
"10963","Otisville","Orange","4487"
"12580","Staatsburg","Dutchess","4479"
"14750","Lakewood","Chautauqua","4419"
"14512","Naples","Ontario","4418"
"12871","Schuylerville","Saratoga","4418"
"12157","Schoharie","Schoharie","4417"
"13460","Sherburne","Chenango","4414"
"12885","Warrensburg","Warren","4410"
"10524","Garrison","Putnam","4380"
"12816","Cambridge","Washington","4371"
"10916","Campbell Hall","Orange","4352"
"12148","Rexford","Saratoga","4333"
"12594","Wingdale","Dutchess","4332"
"14737","Franklinville","Cattaraugus","4322"
"13637","Evans Mills","Jefferson","4318"
"14080","Holland","Erie","4313"
"13862","Whitney Point","Broome","4290"
"11944","Greenport","Suffolk","4287"
"14891","Watkins Glen","Schuyler","4276"
"14532","Phelps","Ontario","4273"
"13082","Kirkville","Onondaga","4258"
"12037","Chatham","Columbia","4257"
"13811","Newark Valley","Tioga","4243"
"13803","Marathon","Cortland","4243"
"14802","Alfred","Allegany","4235"
"13329","Dolgeville","Herkimer","4227"
"12992","West Chazy","Clinton","4197"
"14042","Delevan","Cattaraugus","4181"
"12122","Middleburgh","Schoharie","4170"
"11796","West Sayville","Suffolk","4160"
"13476","Vernon","Oneida","4150"
"10928","Highland Falls","Orange","4145"
"14433","Clyde","Wayne","4141"
"12833","Greenfield Center","Saratoga","4134"
"13838","Sidney","Delaware","4099"
"14772","Randolph","Cattaraugus","4075"
"14541","Romulus","Seneca","4075"
"14882","Lansing","Tompkins","4066"
"13634","Dexter","Jefferson","4064"
"12134","Northville","Fulton","4059"
"12790","Wurtsboro","Sullivan","4058"
"13074","Hannibal","Oswego","4050"
"14485","Lima","Livingston","4010"
"13456","Sauquoit","Oneida","4005"
"12929","Dannemora","Clinton","3982"
"13602","Fort Drum","Jefferson","3968"
"12083","Greenville","Greene","3939"
"13317","Canajoharie","Montgomery","3926"
"10925","Greenwood Lake","Orange","3913"
"12027","Burnt Hills","Saratoga","3887"
"13748","Conklin","Broome","3876"
"13408","Morrisville","Madison","3845"
"12758","Livingston Manor","Sullivan","3835"
"14548","Shortsville","Ontario","3826"
"13354","Holland Patent","Oneida","3811"
"10921","Florida","Orange","3809"
"10548","Montrose","Westchester","3793"
"13033","Cato","Cayuga","3774"
"12944","Keeseville","Essex","3764"
"11732","East Norwich","Nassau","3751"
"11955","Moriches","Suffolk","3748"
"14125","Oakfield","Genesee","3728"
"13833","Port Crane","Broome","3728"
"11954","Montauk","Suffolk","3685"
"11697","Breezy Point","Queens","3674"
"13084","La Fayette","Onondaga","3659"
"14733","Falconer","Chautauqua","3646"
"14823","Canisteo","Steuben","3624"
"12827","Fort Ann","Washington","3622"
"12526","Germantown","Columbia","3622"
"12809","Argyle","Washington","3612"
"13131","Parish","Oswego","3611"
"13491","West Winfield","Herkimer","3606"
"10926","Harriman","Orange","3592"
"13743","Candor","Tioga","3551"
"12865","Salem","Washington","3551"
"13308","Blossvale","Oneida","3543"
"13132","Pennellville","Oswego","3541"
"14416","Bergen","Genesee","3535"
"12543","Maybrook","Orange","3535"
"14812","Beaver Dams","Schuyler","3525"
"12196","West Sand Lake","Rensselaer","3522"
"13439","Richfield Springs","Otsego","3518"
"13030","Bridgeport","Onondaga","3518"
"14025","Boston","Erie","3475"
"14821","Campbell","Steuben","3471"
"13116","Minoa","Onondaga","3468"
"14719","Cattaraugus","Cattaraugus","3459"
"11719","Brookhaven","Suffolk","3447"
"13655","Hogansburg","Franklin","3444"
"14710","Ashville","Chautauqua","3443"
"12449","Lake Katrine","Ulster","3436"
"14111","North Collins","Erie","3425"
"10987","Tuxedo Park","Orange","3408"
"13438","Remsen","Oneida","3392"
"14202","Buffalo","Erie","3385"
"13480","Waterville","Oneida","3372"
"12487","Ulster Park","Ulster","3370"
"13417","New York Mills","Oneida","3362"
"13787","Harpursville","Broome","3342"
"11749","Islandia","Suffolk","3341"
"10004","New York City","New York","3335"
"12404","Accord","Ulster","3334"
"14757","Mayville","Chautauqua","3323"
"10958","New Hampton","Orange","3319"
"12443","Hurley","Ulster","3317"
"13471","Taberg","Oneida","3291"
"10998","Westtown","Orange","3281"
"14738","Frewsburg","Chautauqua","3252"
"12846","Lake Luzerne","Warren","3249"
"12068","Fonda","Montgomery","3238"
"12138","Petersburg","Rensselaer","3218"
"13080","Jordan","Onondaga","3210"
"14543","Rush","Monroe","3203"
"10974","Sloatsburg","Rockland","3202"
"11724","Cold Spring Harbor","Suffolk","3175"
"12531","Holmes","Dutchess","3171"
"11935","Cutchogue","Suffolk","3160"
"13411","New Berlin","Chenango","3152"
"13754","Deposit","Broome","3147"
"14807","Arkport","Steuben","3138"
"13668","Norwood","St. Lawrence","3138"
"13656","La Fargeville","Jefferson","3133"
"12117","Mayfield","Fulton","3133"
"14081","Irving","Chautauqua","3123"
"14098","Lyndonville","Orleans","3102"
"12072","Fultonville","Montgomery","3097"
"10006","New York City","New York","3092"
"10588","Shrub Oak","Westchester","3087"
"11978","Westhampton Beach","Suffolk","3086"
"11718","Brightwaters","Suffolk","3075"
"13691","Theresa","Jefferson","3074"
"13167","West Monroe","Oswego","3067"
"14062","Forestville","Chautauqua","3046"
"12074","Galway","Saratoga","3046"
"14712","Bemus Point","Chautauqua","3044"
"12015","Athens","Greene","3026"
"11794","Stony Brook","Suffolk","3024"
"14561","Stanley","Ontario","3014"
"14755","Little Valley","Cattaraugus","3011"
"13478","Verona","Oneida","3009"
"14172","Wilson","Niagara","3002"
"13461","Sherrill","Oneida","3000"
"14735","Fillmore","Allegany","2981"
"12788","Woodbourne","Sullivan","2980"
"12919","Champlain","Clinton","2974"
"12075","Ghent","Columbia","2959"
"12525","Gardiner","Ulster","2956"
"14170","West Falls","Erie","2944"
"12520","Cornwall On Hudson","Orange","2932"
"14517","Nunda","Livingston","2931"
"14770","Portville","Cattaraugus","2926"
"11548","Greenvale","Nassau","2922"
"13825","Otego","Otsego","2914"
"13060","Elbridge","Onondaga","2912"
"12154","Schaghticoke","Rensselaer","2901"
"13667","Norfolk","St. Lawrence","2898"
"12850","Middle Grove","Saratoga","2887"
"12546","Millerton","Dutchess","2885"
"13795","Kirkwood","Broome","2878"
"14865","Montour Falls","Schuyler","2874"
"12821","Comstock","Washington","2869"
"12966","North Bangor","Franklin","2858"
"12547","Milton","Ulster","2855"
"12056","Duanesburg","Schenectady","2847"
"12413","Cairo","Greene","2813"
"12514","Clinton Corners","Dutchess","2807"
"11549","Hempstead","Nassau","2803"
"13164","Warners","Onondaga","2797"
"10984","Thiells","Rockland","2789"
"13332","Earlville","Chenango","2782"
"12458","Napanoch","Ulster","2778"
"14435","Conesus","Livingston","2773"
"14739","Friendship","Allegany","2740"
"12921","Chazy","Clinton","2734"
"14715","Bolivar","Allegany","2733"
"14034","Collins","Erie","2716"
"13613","Brasher Falls","St. Lawrence","2708"
"13730","Afton","Chenango","2687"
"13143","Red Creek","Wayne","2681"
"12167","Stamford","Delaware","2678"
"14817","Brooktondale","Tompkins","2658"
"14853","Ithaca","Tompkins","2656"
"12501","Amenia","Dutchess","2645"
"13783","Hancock","Delaware","2634"
"12567","Pine Plains","Dutchess","2633"
"14840","Hammondsport","Steuben","2631"
"13092","Locke","Cayuga","2626"
"14716","Brocton","Chautauqua","2623"
"12859","Porter Corners","Saratoga","2617"
"12484","Stone Ridge","Ulster","2612"
"13044","Constantia","Oswego","2595"
"12183","Troy","Albany","2592"
"13654","Heuvelton","St. Lawrence","2578"
"14873","Prattsburgh","Steuben","2574"
"13459","Sharon Springs","Schoharie","2557"
"14775","Ripley","Chautauqua","2545"
"13606","Adams Center","Jefferson","2512"
"10973","Slate Hill","Orange","2479"
"13146","Savannah","Wayne","2462"
"13685","Sackets Harbor","Jefferson","2460"
"14471","Honeoye","Ontario","2458"
"12835","Hadley","Saratoga","2456"
"13363","Lee Center","Oneida","2453"
"12529","Hillsdale","Columbia","2453"
"10537","Lake Peekskill","Putnam","2441"
"13409","Munnsville","Madison","2437"
"14525","Pavilion","Genesee","2424"
"12149","Richmondville","Schoharie","2423"
"11964","Shelter Island","Suffolk","2413"
"13622","Chaumont","Jefferson","2410"
"14724","Clymer","Chautauqua","2405"
"14521","Ovid","Seneca","2405"
"10968","Piermont","Rockland","2400"
"14847","Interlaken","Seneca","2398"
"12094","Johnsonville","Rensselaer","2398"
"13076","Hastings","Oswego","2397"
"14516","North Rose","Wayne","2392"
"13812","Nichols","Tioga","2386"
"13612","Black River","Jefferson","2386"
"14604","Rochester","Monroe","2364"
"12581","Stanfordville","Dutchess","2358"
"12979","Rouses Point","Clinton","2356"
"14813","Belmont","Allegany","2351"
"13324","Cold Brook","Herkimer","2351"
"14627","Rochester","Monroe","2348"
"12981","Saranac","Clinton","2341"
"13424","Oriskany","Oneida","2338"
"13040","Cincinnatus","Cortland","2337"
"14012","Barker","Niagara","2334"
"12106","Kinderhook","Columbia","2333"
"10976","Sparkill","Rockland","2332"
"13658","Lisbon","St. Lawrence","2320"
"13425","Oriskany Falls","Oneida","2318"
"13101","Mc Graw","Cortland","2311"
"12575","Rock Tavern","Orange","2308"
"12926","Constable","Franklin","2304"
"12920","Chateaugay","Franklin","2285"
"14809","Avoca","Steuben","2284"
"13736","Berkshire","Tioga","2283"
"14782","Sinclairville","Chautauqua","2270"
"12583","Tivoli","Dutchess","2269"
"13620","Castorland","Lewis","2267"
"14476","Kendall","Orleans","2250"
"14747","Kennedy","Chautauqua","2243"
"12466","Port Ewen","Ulster","2241"
"13042","Cleveland","Oswego","2224"
"14422","Byron","Genesee","2221"
"13797","Lisle","Broome","2220"
"12748","Jeffersonville","Sullivan","2215"
"12918","Cadyville","Clinton","2210"
"12912","Au Sable Forks","Clinton","2209"
"14533","Piffard","Livingston","2206"
"12780","Sparrow Bush","Orange","2206"
"12207","Albany","Albany","2202"
"14139","South Wales","Erie","2193"
"13416","Newport","Herkimer","2189"
"12023","Berne","Albany","2187"
"12910","Altona","Clinton","2183"
"14818","Burdett","Schuyler","2176"
"14560","Springwater","Livingston","2176"
"11977","Westhampton","Suffolk","2176"
"14744","Houghton","Allegany","2175"
"13626","Copenhagen","Lewis","2172"
"10511","Buchanan","Westchester","2166"
"13673","Philadelphia","Jefferson","2142"
"14767","Panama","Chautauqua","2138"
"12578","Salt Point","Dutchess","2123"
"14806","Andover","Allegany","2121"
"13648","Harrisville","Lewis","2121"
"12996","Willsboro","Essex","2119"
"12155","Schenevus","Otsego","2119"
"13120","Nedrow","Onondaga","2109"
"12916","Brushton","Franklin","2108"
"14781","Sherman","Chautauqua","2089"
"13110","Marietta","Onondaga","2081"
"12789","Woodridge","Sullivan","2081"
"12776","Roscoe","Sullivan","2078"
"13495","Yorkville","Oneida","2059"
"12759","Loch Sheldrake","Sullivan","2058"
"12783","Swan Lake","Sullivan","2048"
"13697","Winthrop","St. Lawrence","2047"
"14718","Cassadaga","Chautauqua","2041"
"13327","Croghan","Lewis","2038"
"13320","Cherry Valley","Otsego","2037"
"12747","Hurleyville","Sullivan","2035"
"12740","Grahamsville","Sullivan","2035"
"12168","Stephentown","Rensselaer","2033"
"13083","Lacona","Oswego","2029"
"13034","Cayuga","Cayuga","2021"
"14898","Woodhull","Steuben","2018"
"13843","South New Berlin","Chenango","2015"
"13646","Hammond","St. Lawrence","2014"
"12937","Fort Covington","Franklin","2014"
"12185","Valley Falls","Rensselaer","2006"
"12173","Stuyvesant","Columbia","1999"
"14879","Savona","Steuben","1998"
"12440","High Falls","Ulster","1997"
"14058","Elba","Genesee","1994"
"12928","Crown Point","Essex","1988"
"12121","Melrose","Rensselaer","1972"
"12737","Glen Spey","Sullivan","1963"
"14826","Cohocton","Steuben","1957"
"14544","Rushville","Yates","1954"
"13746","Chenango Forks","Broome","1954"
"14427","Castile","Wyoming","1943"
"14814","Big Flats","Chemung","1942"
"12057","Eagle Bridge","Washington","1942"
"13063","Fabius","Onondaga","1934"
"12779","South Fallsburg","Sullivan","1930"
"14040","Darien Center","Genesee","1921"
"11509","Atlantic Beach","Nassau","1920"
"14171","West Valley","Cattaraugus","1918"
"14838","Erin","Chemung","1917"
"14101","Machias","Cattaraugus","1910"
"12817","Chestertown","Warren","1905"
"14741","Great Valley","Cattaraugus","1900"
"10986","Tomkins Cove","Rockland","1899"
"12463","Palenville","Greene","1895"
"14726","Conewango Valley","Cattaraugus","1892"
"12958","Mooers","Clinton","1881"
"12197","Worcester","Otsego","1880"
"14138","South Dayton","Cattaraugus","1879"
"12977","Ray Brook","Essex","1874"
"13156","Sterling","Cayuga","1870"
"12192","West Coxsackie","Greene","1867"
"12193","Westerlo","Albany","1855"
"13679","Redwood","Jefferson","1851"
"14145","Strykersville","Wyoming","1847"
"12775","Rock Hill","Sullivan","1845"
"14504","Manchester","Ontario","1839"
"14005","Alexander","Genesee","1838"
"12853","North Creek","Warren","1836"
"13775","Franklin","Delaware","1829"
"13302","Altmar","Oswego","1826"
"13734","Barton","Tioga","1817"
"12870","Schroon Lake","Essex","1816"
"14711","Belfast","Allegany","1814"
"13160","Union Springs","Cayuga","1812"
"13431","Poland","Herkimer","1811"
"13493","Williamstown","Oswego","1804"
"14030","Chaffee","Erie","1800"
"12729","Cuddebackville","Orange","1797"
"11941","Eastport","Suffolk","1797"
"13433","Port Leyden","Lewis","1791"
"14743","Hinsdale","Cattaraugus","1784"
"12577","Salisbury Mills","Orange","1783"
"13625","Colton","St. Lawrence","1778"
"14028","Burt","Niagara","1776"
"13054","Durhamville","Oneida","1775"
"13144","Richland","Oswego","1774"
"10917","Central Valley","Orange","1766"
"12137","Pattersonville","Schenectady","1764"
"10526","Goldens Bridge","Westchester","1763"
"14167","Varysburg","Wyoming","1761"
"11005","Floral Park","Queens","1759"
"12455","Margaretville","Delaware","1755"
"13490","Westmoreland","Oneida","1753"
"12516","Copake","Columbia","1747"
"14203","Buffalo","Erie","1733"
"12957","Moira","Franklin","1723"
"13616","Calcium","Jefferson","1722"
"12116","Maryland","Otsego","1712"
"13024","Auburn","Cayuga","1709"
"13111","Martville","Cayuga","1706"
"14013","Basom","Genesee","1703"
"13680","Rensselaer Falls","St. Lawrence","1702"
"14481","Leicester","Livingston","1699"
"13660","Madrid","St. Lawrence","1697"
"12140","Poestenkill","Rensselaer","1690"
"12059","East Berne","Albany","1682"
"11976","Water Mill","Suffolk","1679"
"14033","Colden","Erie","1677"
"13026","Aurora","Cayuga","1677"
"13343","Glenfield","Lewis","1675"
"13112","Memphis","Onondaga","1673"
"12070","Fort Johnson","Montgomery","1669"
"13402","Madison","Madison","1659"
"12461","Olivebridge","Ulster","1654"
"12764","Narrowsburg","Sullivan","1650"
"12481","Shokan","Ulster","1650"
"14880","Scio","Allegany","1640"
"14065","Freedom","Cattaraugus","1637"
"10922","Fort Montgomery","Orange","1637"
"12523","Elizaville","Columbia","1626"
"12723","Callicoon","Sullivan","1625"
"12486","Tillson","Ulster","1623"
"12066","Esperance","Montgomery","1623"
"13304","Barneveld","Oneida","1617"
"13428","Palatine Bridge","Montgomery","1615"
"12052","Cropseyville","Rensselaer","1611"
"13608","Antwerp","Jefferson","1607"
"14054","East Bethany","Genesee","1593"
"14591","Wyoming","Wyoming","1592"
"13618","Cape Vincent","Jefferson","1590"
"14466","Hemlock","Livingston","1576"
"13158","Truxton","Cortland","1569"
"13650","Henderson","Jefferson","1567"
"14024","Bliss","Wyoming","1552"
"12935","Ellenburg Depot","Clinton","1551"
"13652","Hermon","St. Lawrence","1548"
"12062","East Nassau","Rensselaer","1546"
"12093","Jefferson","Schoharie","1545"
"13808","Morris","Otsego","1544"
"13052","De Ruyter","Madison","1541"
"14889","Van Etten","Chemung","1539"
"12956","Mineville","Essex","1538"
"13809","Mount Upton","Chenango","1531"
"12451","Leeds","Greene","1531"
"14129","Perrysburg","Cattaraugus","1530"
"12974","Port Henry","Essex","1529"
"13328","Deansboro","Oneida","1526"
"13661","Mannsville","Jefferson","1521"
"12067","Feura Bush","Albany","1519"
"14478","Keuka Park","Yates","1501"
"12504","Annandale On Hudson","Dutchess","1494"
"14550","Silver Springs","Wyoming","1491"
"10162","New York City","New York","1486"
"12125","New Lebanon","Columbia","1483"
"13315","Burlington Flats","Otsego","1481"
"12491","West Hurley","Ulster","1478"
"12472","Rosendale","Ulster","1464"
"13145","Sandy Creek","Oswego","1457"
"12496","Windham","Greene","1456"
"12959","Mooers Forks","Clinton","1454"
"12592","Wassaic","Dutchess","1453"
"12515","Clintondale","Ulster","1453"
"12086","Hagaman","Montgomery","1453"
"13630","De Kalb Junction","St. Lawrence","1448"
"13318","Cassville","Oneida","1443"
"14804","Almond","Allegany","1435"
"13801","Mc Donough","Chenango","1428"
"14008","Appleton","Niagara","1415"
"12060","East Chatham","Columbia","1414"
"14477","Kent","Orleans","1411"
"13348","Hartwick","Otsego","1411"
"12058","Earlton","Greene","1394"
"14709","Angelica","Allegany","1389"
"12917","Burke","Franklin","1378"
"13464","Smyrna","Chenango","1373"
"13335","Edmeston","Otsego","1370"
"12733","Fallsburg","Sullivan","1367"
"13796","Laurens","Otsego","1362"
"14778","Saint Bonaventure","Cattaraugus","1354"
"14571","Waterport","Orleans","1350"
"12521","Craryville","Columbia","1349"
"13757","East Meredith","Delaware","1338"
"14055","East Concord","Erie","1331"
"12993","Westport","Essex","1330"
"10969","Pine Island","Orange","1329"
"12985","Schuyler Falls","Clinton","1328"
"13607","Alexandria Bay","Jefferson","1322"
"12980","Saint Regis Falls","Franklin","1321"
"14506","Mendon","Monroe","1317"
"12076","Gilboa","Schoharie","1308"
"12548","Modena","Ulster","1306"
"12814","Bolton Landing","Warren","1284"
"12903","Plattsburgh","Clinton","1283"
"14858","Lindley","Steuben","1281"
"14066","Gainesville","Wyoming","1260"
"14869","Odessa","Schuyler","1259"
"12485","Tannersville","Greene","1256"
"14102","Marilla","Erie","1255"
"14894","Wellsburg","Chemung","1246"
"13694","Waddington","St. Lawrence","1244"
"12941","Jay","Essex","1242"
"10596","Verplanck","Westchester","1242"
"13122","New Woodstock","Madison","1239"
"13028","Bernhards Bay","Oswego","1229"
"10546","Millwood","Westchester","1228"
"10964","Palisades","Rockland","1224"
"12726","Cochecton","Sullivan","1222"
"14614","Rochester","Monroe","1215"
"10501","Amawalk","Westchester","1213"
"13810","Mount Vision","Otsego","1210"
"13635","Edwards","St. Lawrence","1210"
"14860","Lodi","Seneca","1204"
"14864","Millport","Chemung","1197"
"14418","Branchport","Yates","1176"
"13839","Sidney Center","Delaware","1171"
"13807","Milford","Otsego","1163"
"14507","Middlesex","Yates","1157"
"12932","Elizabethtown","Essex","1157"
"12029","Canaan","Columbia","1156"
"12751","Kiamesha Lake","Sullivan","1152"
"14091","Lawtons","Erie","1149"
"12489","Wawarsing","Ulster","1149"
"12166","Sprakers","Montgomery","1148"
"12719","Barryville","Sullivan","1145"
"13744","Castle Creek","Broome","1142"
"12837","Hampton","Washington","1142"
"12502","Ancram","Columbia","1138"
"13835","Richford","Tioga","1132"
"13469","Stittville","Oneida","1131"
"13755","Downsville","Delaware","1127"
"14861","Lowman","Chemung","1125"
"14731","Ellicottville","Cattaraugus","1125"
"14769","Portland","Chautauqua","1124"
"14842","Himrod","Yates","1123"
"12565","Philmont","Columbia","1123"
"12456","Mount Marion","Ulster","1123"
"12431","Freehold","Greene","1120"
"11932","Bridgehampton","Suffolk","1120"
"12430","Fleischmanns","Delaware","1119"
"11569","Point Lookout","Nassau","1117"
"13338","Forestport","Oneida","1110"
"14723","Cherry Creek","Chautauqua","1109"
"12087","Hannacroix","Greene","1109"
"14037","Cowlesville","Wyoming","1107"
"14740","Gerry","Chautauqua","1105"
"13147","Scipio Center","Cayuga","1104"
"12913","Bloomingdale","Essex","1104"
"13081","King Ferry","Cayuga","1102"
"12046","Coeymans Hollow","Albany","1102"
"11972","Speonk","Suffolk","1096"
"12967","North Lawrence","St. Lawrence","1094"
"10505","Baldwin Place","Westchester","1089"
"13061","Erieville","Madison","1087"
"14753","Limestone","Cattaraugus","1082"
"14109","Niagara University","Niagara","1082"
"10518","Cross River","Westchester","1071"
"12457","Mount Tremper","Ulster","1070"
"12997","Wilmington","Essex","1069"
"14805","Alpine","Schuyler","1065"
"13334","Eaton","Madison","1065"
"13303","Ava","Oneida","1065"
"12815","Brant Lake","Warren","1065"
"13368","Lyons Falls","Lewis","1062"
"13325","Constableville","Lewis","1059"
"13681","Richville","St. Lawrence","1053"
"12156","Schodack Landing","Rensselaer","1053"
"12423","East Durham","Greene","1050"
"12824","Diamond Point","Warren","1036"
"12474","Roxbury","Delaware","1035"
"13485","West Edmeston","Otsego","1029"
"14143","Stafford","Genesee","1013"
"12934","Ellenburg Center","Clinton","1007"
"13684","Russell","St. Lawrence","1006"
"12777","Forestburgh","Sullivan","1005"
"14555","Sodus Point","Wayne","1004"
"11939","East Marion","Suffolk","999"
"12989","Vermontville","Franklin","998"
"12468","Prattsville","Greene","998"
"14728","Dewittville","Chautauqua","995"
"12153","Sand Lake","Rensselaer","993"
"13477","Vernon Center","Oneida","991"
"14859","Lockwood","Tioga","984"
"14784","Stockton","Chautauqua","972"
"12160","Sloansville","Schoharie","962"
"12785","Westbrookville","Sullivan","953"
"12765","Neversink","Sullivan","951"
"13071","Genoa","Cayuga","949"
"12746","Huguenot","Orange","948"
"10919","Circleville","Orange","948"
"12406","Arkville","Delaware","947"
"13355","Hubbardsville","Madison","941"
"14855","Jasper","Steuben","940"
"10931","Hillburn","Rockland","938"
"13486","Westernville","Oneida","937"
"12970","Paul Smiths","Franklin","935"
"13780","Guilford","Chenango","929"
"12914","Bombay","Franklin","928"
"10527","Granite Springs","Westchester","925"
"13731","Andes","Delaware","923"
"13615","Brownville","Jefferson","922"
"13750","Davenport","Delaware","918"
"12150","Rotterdam Junction","Schenectady","916"
"11739","Great River","Suffolk","916"
"14822","Canaseraga","Allegany","913"
"13788","Hobart","Delaware","911"
"12151","Round Lake","Saratoga","911"
"14729","East Otto","Cattaraugus","906"
"14836","Dalton","Livingston","892"
"12734","Ferndale","Sullivan","890"
"11930","Amagansett","Suffolk","882"
"13864","Willseyville","Tioga","880"
"12585","Verbank","Dutchess","879"
"13322","Clayville","Oneida","870"
"12768","Parksville","Sullivan","867"
"13420","Old Forge","Herkimer","864"
"12873","Shushan","Washington","863"
"12032","Caroga Lake","Fulton","858"
"12960","Moriah","Essex","857"
"10597","Waccabuc","Westchester","853"
"12028","Buskirk","Rensselaer","849"
"12434","Grand Gorge","Delaware","842"
"14815","Bradford","Steuben","841"
"12942","Keene","Essex","837"
"12863","Rock City Falls","Saratoga","835"
"11957","Orient","Suffolk","835"
"14820","Cameron Mills","Steuben","826"
"12190","Wells","Hamilton","821"
"13321","Clark Mills","Oneida","819"
"13072","Georgetown","Madison","819"
"14839","Greenwood","Steuben","811"
"13361","Jordanville","Herkimer","802"
"10578","Purdys","Westchester","801"
"14803","Alfred Station","Allegany","800"
"14588","Willard","Seneca","800"
"12842","Indian Lake","Hamilton","797"
"13752","De Lancey","Delaware","794"
"14069","Glenwood","Erie","792"
"12464","Phoenicia","Ulster","792"
"13844","South Plymouth","Chenango","790"
"11765","Mill Neck","Nassau","782"
"13782","Hamden","Delaware","777"
"13473","Turin","Lewis","776"
"14846","Hunt","Livingston","775"
"14897","Whitesville","Allegany","773"
"11958","Peconic","Suffolk","768"
"13813","Nineveh","Broome","752"
"13739","Bloomville","Delaware","752"
"12092","Howes Cave","Schoharie","752"
"12930","Dickinson Center","Franklin","748"
"12136","Old Chatham","Columbia","732"
"13682","Rodman","Jefferson","731"
"13665","Natural Bridge","Jefferson","728"
"12473","Round Top","Greene","726"
"14885","Troupsburg","Steuben","722"
"12035","Central Bridge","Schoharie","722"
"13406","Middleville","Herkimer","721"
"12130","Niverville","Columbia","720"
"14480","Lakeville","Livingston","711"
"13802","Maine","Broome","711"
"12124","New Baltimore","Greene","711"
"11948","Laurel","Suffolk","710"
"14841","Hector","Schuyler","707"
"12950","Lewis","Essex","706"
"11960","Remsenburg","Suffolk","706"
"12409","Bearsville","Ulster","703"
"13863","Willet","Cortland","694"
"14777","Rushford","Allegany","693"
"12857","Olmstedville","Essex","685"
"12120","Medusa","Albany","683"
"11547","Glenwood Landing","Nassau","681"
"12442","Hunter","Greene","675"
"12810","Athol","Warren","671"
"12008","Alplaus","Schenectady","668"
"13337","Fly Creek","Otsego","662"
"14825","Chemung","Chemung","661"
"13454","Salisbury Center","Herkimer","661"
"13672","Parishville","St. Lawrence","660"
"13841","Smithville Flats","Chenango","659"
"13489","West Leyden","Lewis","658"
"14872","Pine Valley","Chemung","657"
"14878","Rock Stream","Yates","644"
"10988","Unionville","Orange","636"
"13690","Star Lake","St. Lawrence","633"
"12405","Acra","Greene","633"
"14754","Little Genesee","Allegany","629"
"12763","Mountain Dale","Sullivan","628"
"12861","Putnam Station","Washington","627"
"12778","Smallwood","Sullivan","627"
"12878","Stony Creek","Warren","624"
"12419","Cottekill","Ulster","624"
"14748","Kill Buck","Cattaraugus","618"
"13141","Preble","Cortland","616"
"12022","Berlin","Rensselaer","612"
"14824","Cayuta","Schuyler","611"
"14126","Olcott","Niagara","608"
"14808","Atlanta","Steuben","607"
"12469","Preston Hollow","Albany","607"
"13842","South Kortright","Delaware","606"
"13157","Sylvan Beach","Oneida","603"
"14720","Celoron","Chautauqua","601"
"12427","Elka Park","Greene","600"
"14714","Black Creek","Allegany","597"
"12604","Poughkeepsie","Dutchess","591"
"12480","Shandaken","Ulster","588"
"12884","Victory Mills","Saratoga","585"
"14819","Cameron","Steuben","584"
"12836","Hague","Warren","582"
"12433","Glenford","Ulster","579"
"14536","Portageville","Wyoming","576"
"14082","Java Center","Wyoming","576"
"13832","Plymouth","Chenango","576"
"12503","Ancramdale","Columbia","573"
"12041","Clarksville","Albany","571"
"12444","Jewett","Greene","567"
"12418","Cornwallville","Greene","567"
"10933","Johnson","Orange","563"
"12923","Churubusco","Clinton","562"
"13319","Chadwicks","Oneida","561"
"12838","Hartford","Washington","555"
"13310","Bouckville","Madison","553"
"12843","Johnsburg","Warren","547"
"13776","Gilbertsville","Otsego","546"
"12762","Mongaup Valley","Sullivan","545"
"11959","Quogue","Suffolk","545"
"14462","Groveland","Livingston","534"
"14026","Bowmansville","Erie","531"
"12175","Summit","Schoharie","528"
"14816","Breesport","Chemung","527"
"12860","Pottersville","Warren","526"
"12063","East Schodack","Rensselaer","524"
"12791","Youngsville","Sullivan","523"
"12494","West Shokan","Ulster","519"
"13470","Stratford","Fulton","517"
"12732","Eldred","Sullivan","516"
"13740","Bovina Center","Delaware","515"
"12760","Long Eddy","Sullivan","514"
"12187","Warnerville","Schoharie","513"
"12470","Purling","Greene","512"
"14717","Caneadea","Allegany","509"
"12045","Coeymans","Albany","506"
"11042","New Hyde Park","Nassau","506"
"12517","Copake Falls","Columbia","501"
"12965","Nicholville","St. Lawrence","498"
"13155","South Otselic","Chenango","497"
"12945","Lake Clear","Franklin","492"
"12147","Rensselaerville","Albany","487"
"13468","Springfield Center","Otsego","486"
"11947","Jamesport","Suffolk","486"
"14877","Rexville","Steuben","476"
"12412","Boiceville","Ulster","473"
"13621","Chase Mills","St.Lawrence","469"
"13163","Wampsville","Madison","468"
"10517","Crompond","Westchester","459"
"14113","North Java","Wyoming","455"
"13123","North Bay","Oneida","451"
"12176","Surprise","Greene","451"
"14486","Linwood","Genesee","449"
"13670","Oswegatchie","St. Lawrence","448"
"12952","Lyon Mountain","Clinton","448"
"14511","Mumford","Monroe","439"
"13693","Three Mile Bay","Jefferson","439"
"13659","Lorraine","Jefferson","439"
"12936","Essex","Essex","439"
"13313","Bridgewater","Oneida","425"
"12085","Guilderland Center","Albany","424"
"12969","Owls Head","Franklin","421"
"12417","Connelly","Ulster","421"
"12743","Highland Lake","Sullivan","420"
"13687","South Colton","St. Lawrence","418"
"13483","Westdale","Oneida","418"
"13136","Pitcher","Chenango","417"
"12460","Oak Hill","Greene","416"
"12448","Lake Hill","Ulster","413"
"13153","Skaneateles Falls","Onondaga","408"
"12017","Austerlitz","Columbia","403"
"13678","Raymondville","St. Lawrence","400"
"12851","Minerva","Essex","394"
"13435","Prospect","Oneida","393"
"12108","Lake Pleasant","Hamilton","393"
"14475","Ionia","Ontario","391"
"13312","Brantingham","Lewis","391"
"12998","Witherbee","Essex","390"
"10535","Jefferson Valley","Westchester","390"
"12574","Rhinecliff","Dutchess","388"
"12164","Speculator","Hamilton","387"
"13756","East Branch","Delaware","384"
"13437","Redfield","Oswego","382"
"11965","Shelter Island Heights","Suffolk","380"
"14061","Farnham","Erie","375"
"12852","Newcomb","Essex","375"
"12847","Long Lake","Hamilton","375"
"12174","Stuyvesant Falls","Columbia","375"
"12410","Big Indian","Ulster","370"
"13846","Treadwell","Delaware","369"
"12454","Maplecrest","Greene","366"
"13786","Harpersfield","Delaware","365"
"12766","North Branch","Sullivan","364"
"12943","Keene Valley","Essex","358"
"12786","White Lake","Sullivan","354"
"12422","Durham","Greene","353"
"12411","Bloomington","Ulster","353"
"12439","Hensonville","Greene","348"
"13777","Glen Aubrey","Broome","347"
"12071","Fultonham","Schoharie","346"
"14752","Lily Dale","Chautauqua","345"
"13418","North Brookfield","Madison","345"
"12416","Chichester","Ulster","341"
"12064","East Worcester","Otsego","341"
"13614","Brier Hill","St. Lawrence","339"
"12475","Ruby","Ulster","339"
"12955","Lyon Mountain","Clinton","334"
"12769","Phillipsport","Sullivan","332"
"12978","Redford","Clinton","328"
"14060","Farmersville Station","Cattaraugus","326"
"12750","Kenoza Lake","Sullivan","326"
"13314","Brookfield","Madison","325"
"12429","Esopus","Ulster","324"
"11962","Sagaponack","Suffolk","324"
"13804","Masonville","Delaware","323"
"13484","West Eaton","Madison","322"
"12787","White Sulphur Springs","Sullivan","322"
"14441","Dresden","Yates","319"
"14742","Greenhurst","Chautauqua","313"
"14884","Swain","Allegany","306"
"13664","Morristown","St. Lawrence","306"
"13633","De Peyster","St. Lawrence","306"
"14783","Steamburg","Cattaraugus","305"
"12738","Glen Wild","Sullivan","304"
"13640","Wellesley Island","Jefferson","301"
"14856","Kanona","Steuben","300"
"12849","Middle Granville","Washington","297"
"12132","North Chatham","Columbia","297"
"10914","Blooming Grove","Orange","297"
"12172","Stottville","Columbia","296"
"12513","Claverack","Columbia","295"
"12036","Charlotteville","Schoharie","295"
"13113","Meridian","Cayuga","294"
"13410","Nelliston","Montgomery","291"
"13834","Portlandville","Otsego","289"
"10519","Croton Falls","Westchester","289"
"13494","Woodgate","Oneida","287"
"13117","Montezuma","Cayuga","287"
"14173","Yorkshire","Cattaraugus","281"
"12471","Rifton","Ulster","281"
"12177","Tribes Hill","Montgomery","281"
"12781","Summitville","Sullivan","278"
"12452","Lexington","Greene","275"
"13861","West Oneonta","Otsego","273"
"12792","Yulan","Sullivan","272"
"11975","Wainscott","Suffolk","272"
"12752","Lake Huntington","Sullivan","270"
"12819","Clemons","Washington","269"
"12808","Adirondack","Warren","269"
"12483","Spring Glen","Ulster","267"
"12975","Port Kent","Essex","264"
"12961","Moriah Center","Essex","264"
"12724","Callicoon Center","Sullivan","255"
"13638","Felts Mills","Jefferson","254"
"12927","Cranberry Lake","St. Lawrence","254"
"13639","Fine","St. Lawrence","252"
"12169","Stephentown","Rensselaer","252"
"12844","Kattskill Bay","Warren","250"
"12507","Barrytown","Dutchess","250"
"12435","Greenfield Park","Ulster","250"
"11956","New Suffolk","Suffolk","250"
"12770","Pond Eddy","Sullivan","246"
"14722","Chautauqua","Chautauqua","244"
"12886","Wevertown","Warren","244"
"12420","Cragsmoor","Ulster","242"
"12424","East Jewett","Greene","239"
"13636","Ellisburg","Jefferson","237"
"12421","Denver","Delaware","236"
"14874","Pulteney","Steuben","235"
"14708","Alma","Allegany","230"
"13806","Meridale","Delaware","229"
"12823","Cossayuna","Washington","227"
"12749","Kauneonga Lake","Sullivan","227"
"12976","Rainbow Lake","Franklin","225"
"12432","Glasco","Ulster","225"
"12042","Climax","Greene","225"
"12939","Gabriels","Franklin","223"
"13628","Deferiet","Jefferson","222"
"12453","Malden On Hudson","Ulster","222"
"13305","Beaver Falls","Lewis","220"
"12856","North River","Warren","218"
"13134","Peterboro","Madison","216"
"13162","Verona Beach","Oneida","215"
"12741","Hankins","Sullivan","214"
"13103","Mallory","Oswego","213"
"12459","New Kingston","Delaware","213"
"13115","Minetto","Oswego","212"
"11970","South Jamesport","Suffolk","212"
"12855","North Hudson","Essex","210"
"13342","Garrattsville","Otsego","209"
"12465","Pine Hill","Ulster","206"
"11430","Jamaica","Queens","206"
"14736","Findley Lake","Chautauqua","203"
"12069","Fort Hunter","Montgomery","203"
"10975","Southfields","Orange","200"
"12987","Upper Jay","Essex","198"
"12482","South Cairo","Greene","196"
"14041","Dayton","Cattaraugus","195"
"12031","Carlisle","Schoharie","195"
"12161","South Bethlehem","Albany","191"
"14545","Scottsburg","Livingston","188"
"14827","Coopers Plains","Steuben","186"
"13441","Rome","Oneida","184"
"14415","Bellona","Yates","183"
"13666","Newton Falls","St. Lawrence","183"
"12450","Lanesville","Greene","181"
"13751","Davenport Center","Delaware","180"
"13488","Westford","Otsego","172"
"14130","Pike","Wyoming","170"
"13301","Alder Creek","Oneida","168"
"13341","Franklin Springs","Oneida","166"
"13064","Fair Haven","Oswego","165"
"12841","Huletts Landing","Washington","165"
"12407","Ashland","Greene","165"
"10985","Thompson Ridge","Orange","162"
"10979","Sterling Forest","Orange","162"
"12165","Spencertown","Columbia","161"
"14881","Slaterville Springs","Tompkins","159"
"13695","Wanakena","St. Lawrence","158"
"12720","Bethel","Sullivan","158"
"13051","Delphi Falls","Onondaga","157"
"12874","Silver Bay","Warren","156"
"12194","West Fulton","Schoharie","156"
"13674","Pierrepont Manor","Jefferson","155"
"14732","Ellington","Chautauqua","154"
"13774","Fishs Eddy","Delaware","154"
"10503","Ardsley On Hudson","Westchester","153"
"12512","Chelsea","Dutchess","151"
"14721","Ceres","Allegany","150"
"13362","Knoxboro","Oneida","150"
"13675","Plessis","Jefferson","149"
"12964","New Russia","Essex","148"
"14537","Port Gibson","Ontario","147"
"14135","Sheridan","Chautauqua","147"
"13859","Wells Bridge","Otsego","146"
"12139","Piseco","Hamilton","146"
"12812","Blue Mountain Lake","Hamilton","143"
"14302","Niagara Falls","Niagara","140"
"12767","Obernburg","Sullivan","140"
"12492","West Kill","Greene","140"
"14529","Perkinsville","Steuben","137"
"12040","Cherry Plain","Rensselaer","137"
"13087","Little York","Cortland","134"
"13360","Inlet","Hamilton","133"
"13331","Eagle Bay","Herkimer","133"
"12495","Willow","Ulster","131"
"13784","Harford","Cortland","130"
"13345","Greig","Lewis","130"
"14707","Allentown","Allegany","129"
"12493","West Park","Ulster","128"
"10545","Maryknoll","Westchester","128"
"6390","Fishers Island","Suffolk","125"
"13404","Martinsburg","Lewis","124"
"13845","Tioga Center","Tioga","123"
"12725","Claryville","Sullivan","119"
"12858","Paradox","Essex","116"
"14479","Knowlesville","Orleans","115"
"14169","Wales Center","Erie","115"
"12195","West Lebanon","Columbia","113"
"14134","Sardinia","Erie","111"
"10953","Mountainville","Orange","109"
"14112","North Evans","Erie","105"
"14035","Collins Center","Erie","105"
"12973","Piercefield","St. Lawrence","104"
"12742","Harris","Sullivan","102"
"10932","Howells","Orange","102"
"12745","Hortonville","Sullivan","100"
"13020","Apulia Station","Onondaga","99"
"13847","Trout Creek","Delaware","98"
"12924","Keeseville","Clinton","97"
"13651","Henderson Harbor","Jefferson","96"
"13696","West Stockholm","St. Lawrence","94"
"12436","Haines Falls","Greene","94"
"12811","Bakers Mills","Warren","91"
"12131","North Blenheim","Schoharie","91"
"14539","Retsof","Livingston","90"
"14039","Dale","Wyoming","90"
"13364","Leonardsville","Madison","89"
"14585","West Bloomfield","Ontario","85"
"12722","Burlingham","Sullivan","85"
"10915","Bullville","Orange","85"
"13124","North Pitcher","Chenango","83"
"12441","Highmount","Ulster","83"
"14549","Silver Lake","Wyoming","76"
"13436","Raquette Lake","Hamilton","74"
"13415","New Lisbon","Otsego","73"
"13472","Thendara","Herkimer","68"
"13794","Killawog","Broome","67"
"14592","York","Livingston","64"
"12089","Hoosick","Rensselaer","64"
"12530","Hollowville","Columbia","61"
"12115","Malden Bridge","Columbia","61"
"14542","Rose","Wayne","60"
"12933","Ellenburg","Clinton","59"
"13138","Pompey","Onondaga","56"
"11770","Ocean Beach","Suffolk","56"
"14774","Richburg","Allegany","55"
"13647","Hannawa Falls","St. Lawrence","55"
"13641","Fishers Landing","Jefferson","48"
"13102","Mc Lean","Tompkins","47"
"12736","Fremont Center","Sullivan","46"
"14788","Westons Mills","Cattaraugus","44"
"12784","Thompsonville","Sullivan","44"
"13643","Great Bend","Jefferson","43"
"10279","New York City","New York","42"
"13062","Etna","Tompkins","41"
"12872","Severance","Essex","40"
"11973","Upton","Suffolk","40"
"13677","Pyrites","St. Lawrence","39"
"11931","Aquebogue","Suffolk","39"
"13450","Roseboom","Otsego","35"
"13333","East Springfield","Otsego","34"
"12922","Childwold","St. Lawrence","33"
"12438","Halcottsville","Delaware","31"
"14168","Versailles","Cattaraugus","30"
"13692","Thousand Island Park","Jefferson","30"
"14756","Maple Springs","Chautauqua","28"
"13860","West Davenport","Delaware","27"
"12490","West Camp","Ulster","27"
"12864","Sabael","Hamilton","22"
"13623","Chippewa Bay","St. Lawrence","18"
"13475","Van Hornesville","Herkimer","16"
"13826","Ouaquaga","Broome","15"
"13353","Hoffmeister","Hamilton","13"
"14854","Jacksonville","Tompkins","12"
"13352","Hinckley","Oneida","11"
"12007","Alcove","Albany","9"
"14893","Wayne","Schuyler","0"
"13290","Syracuse","Onondaga","0"
"12911","Keeseville","Clinton","0"
"12862","Riparius","Warren","0"
"12527","Glenham","Dutchess","0"
"12024","Brainard","Rensselaer","0"
"11556","Uniondale","Nassau","0"
"11451","Jamaica","Queens","0"
"11425","Jamaica","Queens","0"
"11424","Jamaica","Queens","0"
"11371","Flushing","Queens","0"
"11359","Bayside","Queens","0"
"11351","Flushing","Queens","0"
"10911","Bear Mountain","Rockland","0"
"10910","Arden","Orange","0"
"10311","Staten Island","Richmond","0"
"10278","New York City","New York","0"
"10271","New York City","New York","0"
"10199","New York City","New York","0"
"10177","New York City","New York","0"
"10174","New York City","New York","0"
"10173","New York City","New York","0"
"10172","New York City","New York","0"
"10171","New York City","New York","0"
"10170","New York City","New York","0"
"10169","New York City","New York","0"
"10168","New York City","New York","0"
"10167","New York City","New York","0"
"10165","New York City","New York","0"
"10154","New York City","New York","0"
"10153","New York City","New York","0"
"10152","New York City","New York","0"
"10119","New York City","New York","0"
"10115","New York City","New York","0"
"10112","New York City","New York","0"
"10111","New York City","New York","0"
"10110","New York City","New York","0"
"10103","New York City","New York","0"
"10020","New York City","New York","0"